[{"OBJECT_NAME":"STARLINK-34040","OBJECT_ID":"2025-093D","EPOCH":"2026-03-09T10:21:55.365120","MEAN_MOTION":15.27581833,"ECCENTRICITY":0.00011682,"INCLINATION":43.0021,"RA_OF_ASC_NODE":79.2819,"ARG_OF_PERICENTER":264.7212,"MEAN_ANOMALY":95.3506,"EPHEMERIS_TYPE":0,"CLASSIFICATION_TYPE":"U","NORAD_CAT_ID":63839,"ELEMENT_SET_NO":999,"REV_AT_EPOCH":4793,"BSTAR":0.0010300341,"MEAN_MOTION_DOT":0.00028192,"MEAN_MOTION_DDOT":0},{"OBJECT_NAME":"SL-3 R\/B","OBJECT_ID":"1982-027B","EPOCH":"2026-03-09T22:44:40.208640","MEAN_MOTION":15.28335844,"ECCENTRICITY":0.00065199,"INCLINATION":81.188,"RA_OF_ASC_NODE":37.4466,"ARG_OF_PERICENTER":276.581,"MEAN_ANOMALY":83.4683,"EPHEMERIS_TYPE":0,"CLASSIFICATION_TYPE":"U","NORAD_CAT_ID":13121,"ELEMENT_SET_NO":999,"REV_AT_EPOCH":39859,"BSTAR":0.00030526741,"MEAN_MOTION_DOT":8.453e-5,"MEAN_MOTION_DDOT":0}]
